IRIDIUM 126             
1 42809U 17039G   24032.97248801  .00000129  00000+0  39000-4 0  9990
2 42809  86.4001 355.6359 0002199  78.6532 281.4910 14.34217564345804
IRIDIUM 124             
1 42810U 17039H   24033.17953776  .00000414  00000+0  11709-3 0  9991
2 42810  86.4497 292.3043 0002409  80.0291 280.1182 14.43272745350204
IRIDIUM 128             
1 42811U 17039J   24033.45159893  .00000240  00000+0  78733-4 0  9999
2 42811  86.3962  26.9423 0002078  88.2871 271.8563 14.34220364345899
IRIDIUM 121             
1 42812U 17039K   24032.71244098  .00000200  00000+0  64492-4 0  9993
2 42812  86.4002 355.7659 0002275  88.3512 271.7944 14.34217385345635
IRIDIUM 133             
1 42955U 17061A   24033.48331752  .00000192  00000+0  61445-4 0  9990
2 42955  86.3965  27.0258 0002236  87.2031 272.9420 14.34218793330691
IRIDIUM 100             
1 42956U 17061B   24033.05836525  .00000226  00000+0  73567-4 0  9998
2 42956  86.3962  27.1422 0002101  87.8698 272.2738 14.34219687330653
IRIDIUM 122             
1 42957U 17061C   24033.16618502  .00000216  00000+0  69887-4 0  9993
2 42957  86.3961  27.0951 0002061  88.2019 271.9413 14.34219062330659
IRIDIUM 129             
1 42958U 17061D   24033.47063066  .00000208  00000+0  67203-4 0  9998
2 42958  86.3964  27.0259 0002121  86.3797 273.7642 14.34219003330719
